O3B MPOWER F1           
1 54755U 22174A   26199.43129782 -.00000025  00000+0  00000+0 0  9991
2 54755   0.0489 339.1938 0006656 148.2099  61.5741  5.00114734 66923
O3B MPOWER F2           
1 54756U 22174B   26199.29310988 -.00000025  00000+0  00000+0 0  9996
2 54756   0.0448 339.8103 0005778 131.4187 248.8289  5.00114905 67003
O3B MPOWER F4           
1 56367U 23059A   26197.35842944 -.00000025  00000+0  00000+0 0  9996
2 56367   0.0629 349.7471 0007732 128.2686 242.0585  5.00115393 60068
O3B MPOWER F3           
1 56368U 23059B   26199.39046131 -.00000025  00000+0  00000+0 0  9997
2 56368   0.0635 348.6625 0006658 124.5314 246.8725  5.00116415 56292
O3B MPOWER F5           
1 58346U 23175A   26199.09168032 -.00000025  00000+0  00000+0 0  9996
2 58346   0.0526   8.9283 0005538 125.8019 225.3110  5.00115871 50982
O3B MPOWER F6           
1 58347U 23175B   26199.59193916 -.00000025  00000+0  00000+0 0  9991
2 58347   0.0543   0.5051 0004432 115.4265 244.1103  5.00115793 49929
O3B MPOWER F7           
1 62362U 24244A   26199.45845290 -.00000025  00000+0  00000+0 0  9995
2 62362   0.0657 342.2007 0005928 130.4754 247.3828  5.00115336 28081
O3B MPOWER F8           
1 62363U 24244B   26199.42540529 -.00000025  00000+0  00000+0 0  9990
2 62363   0.0148   8.1103 0005724  97.3760 254.5731  5.00115021 22431
O3B MPOWER F9           
1 64866U 25153A   26199.55867235 -.00000025  00000+0  00000+0 0  9990
2 64866   0.0617   5.0394 0006768 130.0220 224.9897  5.00115646 21138
O3B MPOWER F10          
1 64867U 25153B   26199.72462218 -.00000024  00000+0  00000+0 0  9991
2 64867   0.0587   1.6364 0002505 246.0742 112.2590  5.00114893 23602
