{"fetched_at":"2026-07-19T07:05:26.450Z","source":"https://celestrak.org/NORAD/elements/gp.php?NAME=O3B&FORMAT=JSON","constellation":"o3b-mpower","records":[{"OBJECT_NAME":"O3B MPOWER F1","OBJECT_ID":"2022-174A","EPOCH":"2026-07-18T10:21:04.131648","CLASSIFICATION_TYPE":"U","MEAN_MOTION":5.00114734,"ECCENTRICITY":0.00066569,"INCLINATION":0.0489,"RA_OF_ASC_NODE":339.1938,"ARG_OF_PERICENTER":148.2099,"MEAN_ANOMALY":61.5741,"EPHEMERIS_TYPE":0,"NORAD_CAT_ID":54755,"ELEMENT_SET_NO":999,"REV_AT_EPOCH":6692,"BSTAR":0,"MEAN_MOTION_DOT":-2.5e-7,"MEAN_MOTION_DDOT":0},{"OBJECT_NAME":"O3B MPOWER F2","OBJECT_ID":"2022-174B","EPOCH":"2026-07-18T07:02:04.693632","CLASSIFICATION_TYPE":"U","MEAN_MOTION":5.00114905,"ECCENTRICITY":0.00057788,"INCLINATION":0.0448,"RA_OF_ASC_NODE":339.8103,"ARG_OF_PERICENTER":131.4187,"MEAN_ANOMALY":248.8289,"EPHEMERIS_TYPE":0,"NORAD_CAT_ID":54756,"ELEMENT_SET_NO":999,"REV_AT_EPOCH":6700,"BSTAR":0,"MEAN_MOTION_DOT":-2.5e-7,"MEAN_MOTION_DDOT":0},{"OBJECT_NAME":"O3B MPOWER F4","OBJECT_ID":"2023-059A","EPOCH":"2026-07-16T08:36:08.303616","CLASSIFICATION_TYPE":"U","MEAN_MOTION":5.00115393,"ECCENTRICITY":0.0007732,"INCLINATION":0.0629,"RA_OF_ASC_NODE":349.7471,"ARG_OF_PERICENTER":128.2686,"MEAN_ANOMALY":242.0585,"EPHEMERIS_TYPE":0,"NORAD_CAT_ID":56367,"ELEMENT_SET_NO":999,"REV_AT_EPOCH":6006,"BSTAR":0,"MEAN_MOTION_DOT":-2.5e-7,"MEAN_MOTION_DDOT":0},{"OBJECT_NAME":"O3B MPOWER F3","OBJECT_ID":"2023-059B","EPOCH":"2026-07-18T09:22:15.857184","CLASSIFICATION_TYPE":"U","MEAN_MOTION":5.00116415,"ECCENTRICITY":0.00066585,"INCLINATION":0.0635,"RA_OF_ASC_NODE":348.6625,"ARG_OF_PERICENTER":124.5314,"MEAN_ANOMALY":246.8725,"EPHEMERIS_TYPE":0,"NORAD_CAT_ID":56368,"ELEMENT_SET_NO":999,"REV_AT_EPOCH":5629,"BSTAR":0,"MEAN_MOTION_DOT":-2.5e-7,"MEAN_MOTION_DDOT":0},{"OBJECT_NAME":"O3B MPOWER F5","OBJECT_ID":"2023-175A","EPOCH":"2026-07-18T02:12:01.179648","CLASSIFICATION_TYPE":"U","MEAN_MOTION":5.00115871,"ECCENTRICITY":0.00055388,"INCLINATION":0.0526,"RA_OF_ASC_NODE":8.9283,"ARG_OF_PERICENTER":125.8019,"MEAN_ANOMALY":225.311,"EPHEMERIS_TYPE":0,"NORAD_CAT_ID":58346,"ELEMENT_SET_NO":999,"REV_AT_EPOCH":5098,"BSTAR":0,"MEAN_MOTION_DOT":-2.5e-7,"MEAN_MOTION_DDOT":0},{"OBJECT_NAME":"O3B MPOWER F6","OBJECT_ID":"2023-175B","EPOCH":"2026-07-18T14:12:23.543424","CLASSIFICATION_TYPE":"U","MEAN_MOTION":5.00115793,"ECCENTRICITY":0.0004432,"INCLINATION":0.0543,"RA_OF_ASC_NODE":0.5051,"ARG_OF_PERICENTER":115.4265,"MEAN_ANOMALY":244.1103,"EPHEMERIS_TYPE":0,"NORAD_CAT_ID":58347,"ELEMENT_SET_NO":999,"REV_AT_EPOCH":4992,"BSTAR":0,"MEAN_MOTION_DOT":-2.5e-7,"MEAN_MOTION_DDOT":0},{"OBJECT_NAME":"O3B MPOWER F7","OBJECT_ID":"2024-244A","EPOCH":"2026-07-18T11:00:10.330560","CLASSIFICATION_TYPE":"U","MEAN_MOTION":5.00115336,"ECCENTRICITY":0.00059285,"INCLINATION":0.0657,"RA_OF_ASC_NODE":342.2007,"ARG_OF_PERICENTER":130.4754,"MEAN_ANOMALY":247.3828,"EPHEMERIS_TYPE":0,"NORAD_CAT_ID":62362,"ELEMENT_SET_NO":999,"REV_AT_EPOCH":2808,"BSTAR":0,"MEAN_MOTION_DOT":-2.5e-7,"MEAN_MOTION_DDOT":0},{"OBJECT_NAME":"O3B MPOWER F8","OBJECT_ID":"2024-244B","EPOCH":"2026-07-18T10:12:35.017056","CLASSIFICATION_TYPE":"U","MEAN_MOTION":5.00115021,"ECCENTRICITY":0.0005724,"INCLINATION":0.0148,"RA_OF_ASC_NODE":8.1103,"ARG_OF_PERICENTER":97.376,"MEAN_ANOMALY":254.5731,"EPHEMERIS_TYPE":0,"NORAD_CAT_ID":62363,"ELEMENT_SET_NO":999,"REV_AT_EPOCH":2243,"BSTAR":0,"MEAN_MOTION_DOT":-2.5e-7,"MEAN_MOTION_DDOT":0},{"OBJECT_NAME":"O3B MPOWER F9","OBJECT_ID":"2025-153A","EPOCH":"2026-07-18T13:24:29.291040","CLASSIFICATION_TYPE":"U","MEAN_MOTION":5.00115646,"ECCENTRICITY":0.0006768,"INCLINATION":0.0617,"RA_OF_ASC_NODE":5.0394,"ARG_OF_PERICENTER":130.022,"MEAN_ANOMALY":224.9897,"EPHEMERIS_TYPE":0,"NORAD_CAT_ID":64866,"ELEMENT_SET_NO":999,"REV_AT_EPOCH":2113,"BSTAR":0,"MEAN_MOTION_DOT":-2.5e-7,"MEAN_MOTION_DDOT":0},{"OBJECT_NAME":"O3B MPOWER F10","OBJECT_ID":"2025-153B","EPOCH":"2026-07-18T17:23:27.356352","CLASSIFICATION_TYPE":"U","MEAN_MOTION":5.00114893,"ECCENTRICITY":0.0002505,"INCLINATION":0.0587,"RA_OF_ASC_NODE":1.6364,"ARG_OF_PERICENTER":246.0742,"MEAN_ANOMALY":112.259,"EPHEMERIS_TYPE":0,"NORAD_CAT_ID":64867,"ELEMENT_SET_NO":999,"REV_AT_EPOCH":2360,"BSTAR":0,"MEAN_MOTION_DOT":-2.4e-7,"MEAN_MOTION_DDOT":0}]}
